[{"OBJECT_NAME":"STARLINK-35267","OBJECT_ID":"2025-207A","EPOCH":"2026-03-09T17:32:37.637088","MEAN_MOTION":15.05648385,"ECCENTRICITY":0.00011316,"INCLINATION":97.6033,"RA_OF_ASC_NODE":138.6389,"ARG_OF_PERICENTER":124.6208,"MEAN_ANOMALY":235.5126,"EPHEMERIS_TYPE":0,"CLASSIFICATION_TYPE":"U","NORAD_CAT_ID":65592,"ELEMENT_SET_NO":999,"REV_AT_EPOCH":2825,"BSTAR":0.0003009984,"MEAN_MOTION_DOT":4.285e-5,"MEAN_MOTION_DDOT":0},{"OBJECT_NAME":"THOR ALTAIR DEB","OBJECT_ID":"1966-026D","EPOCH":"2026-03-09T21:08:08.495232","MEAN_MOTION":14.80090516,"ECCENTRICITY":0.01273304,"INCLINATION":98.9687,"RA_OF_ASC_NODE":49.0062,"ARG_OF_PERICENTER":303.87,"MEAN_ANOMALY":55.0446,"EPHEMERIS_TYPE":0,"CLASSIFICATION_TYPE":"U","NORAD_CAT_ID":2177,"ELEMENT_SET_NO":999,"REV_AT_EPOCH":14815,"BSTAR":0.00075855056,"MEAN_MOTION_DOT":6.533e-5,"MEAN_MOTION_DDOT":0}]
